BEIDOU 3 (C01)          
1 36287U 10001A   20360.88260657 -.00000263  00000-0  00000-0 0  9993
2 36287   1.6319  38.3657 0003670 120.9436  33.6929  1.00270669 40121
BEIDOU 5 (C06)          
1 36828U 10036A   20361.24103800  .00000016  00000-0  00000+0 0  9993
2 36828  54.1664 181.1960 0100429 233.4119 245.4106  1.00256054 38174
BEIDOU 6 (C04)          
1 37210U 10057A   20360.88644497 -.00000094  00000-0  00000-0 0  9991
2 37210   0.8444  48.0462 0006566 186.2796 339.6027  1.00273475 37235
BEIDOU 7 (C07)          
1 37256U 10068A   20361.16549409 -.00000228  00000-0  00000+0 0  9990
2 37256  51.1615 296.0634 0079886 215.6339 119.1840  1.00250083 36755
BEIDOU 8 (C08)          
1 37384U 11013A   20360.59019110 -.00000209  00000-0  00000+0 0  9999
2 37384  59.5353  59.6616 0053128 206.0651 156.5368  1.00251863 35625
BEIDOU 9 (C09)          
1 37763U 11038A   20360.58367642  .00000039  00000-0  00000+0 0  9992
2 37763  54.4486 183.6144 0072623 223.0807 350.8626  1.00254943 34597
BEIDOU 10 (C10)         
1 37948U 11073A   20360.93249025 -.00000164  00000-0  00000-0 0  9990
2 37948  51.2637 295.6726 0070996 216.2991  12.3576  1.00292087 33352
BEIDOU 11 (C05)         
1 38091U 12008A   20361.15339491  .00000075  00000-0  00000+0 0  9990
2 38091   1.8870  71.0265 0003512 232.4025 265.6613  1.00268918 32433
BEIDOU 12 (C11)         
1 38250U 12018A   20361.18441095 -.00000073  00000-0  00000+0 0  9994
2 38250  56.7540  11.3353 0024904 247.0753 157.7100  1.86234194 59069
BEIDOU 13 (C12)         
1 38251U 12018B   20361.18073269 -.00000073  00000-0  00000+0 0  9999
2 38251  56.6775  10.6934 0015879 249.6983 197.0983  1.86232752 59064
BEIDOU 15 (C14)         
1 38775U 12050B   20360.93603481  .00000015  00000-0  00000+0 0  9998
2 38775  55.1330 129.8351 0012360 323.4994 156.5686  1.86232218 56432
BEIDOU 16 (C02)         
1 38953U 12059A   20360.94979995 -.00000157  00000-0  00000-0 0  9991
2 38953   1.5566  84.7054 0008679 256.3692 179.7952  1.00270047 30008
BEIDOU 17 (C31)         
1 40549U 15019A   20360.87257441 -.00000161  00000-0  00000-0 0  9996
2 40549  52.7668 318.9950 0037189 189.6920 350.5421  1.00304784 21039
BEIDOU 18 (C57)         
1 40748U 15037A   20361.19251880 -.00000075  00000-0  00000+0 0  9997
2 40748  55.9429   9.8856 0003677 315.4316  49.3500  1.86233368 36898
BEIDOU 19 (C58)         
1 40749U 15037B   20360.73509646 -.00000077  00000-0  00000-0 0  9996
2 40749  55.9468   9.8903 0006622 291.2522 263.7025  1.86232089 36879
BEIDOU 20 (C18)         
1 40938U 15053A   20360.75743648 -.00000153  00000-0  00000-0 0  9993
2 40938  52.3333 282.0484 0046700 192.1981 349.7422  1.00275582 19316
BEIDOU IGSO-6 (C13)     
1 41434U 16021A   20361.16089456 -.00000158  00000-0  00000+0 0  9991
2 41434  57.3099  58.4775 0043065 208.6409 339.6397  1.00262144 17439
BEIDOU-2 G7 (C03)       
1 41586U 16037A   20361.10188278 -.00000336  00000-0  00000+0 0  9990
2 41586   1.8902  68.9252 0008190 356.7445 176.5832  1.00270031 16733
BEIDOU-3 M1 (C19)       
1 43001U 17069A   20360.92292970  .00000015  00000-0  00000+0 0  9997
2 43001  55.2883 129.7644 0007427 286.3453 341.4177  1.86231653 21369
BEIDOU-3 M3 (C27)       
1 43107U 18003A   20360.49771736 -.00000079  00000-0  00000-0 0  9999
2 43107  55.3817  11.0677 0003209  28.2085 163.9993  1.86232461 20114
BEIDOU-3 M5 (C21)       
1 43207U 18018A   20360.05407198  .00000021  00000-0  00000-0 0  9992
2 43207  55.2477 129.9261 0004505 346.1667  13.7874  1.86231676 19498
BEIDOU-3 M6 (C22)       
1 43208U 18018B   20360.12083035  .00000021  00000-0  00000-0 0  9991
2 43208  55.2472 129.9288 0005997 299.3938  60.5126  1.86231770 19494
BEIDOU-3 M7 (C29)       
1 43245U 18029A   20360.61496617 -.00000079  00000-0  00000-0 0  9996
2 43245  55.3217   8.8648 0001714 264.9133 276.0121  1.86232567 18657
BEIDOU-3 M8 (C30)       
1 43246U 18029B   20360.54805606 -.00000079  00000-0  10000-3 0  9995
2 43246  55.3179   8.8975 0004411 324.6984 217.4152  1.86232789 18641
BEIDOU IGSO-7 (C16)     
1 43539U 18057A   20361.08937359 -.00000027  00000-0  00000+0 0  9990
2 43539  55.0486 180.5160 0030906 212.0148 209.5808  1.00266421  9116
BEIDOU-3 M9 (C23)       
1 43581U 18062A   20361.18585693  .00000026  00000-0  00000+0 0  9992
2 43581  54.4758 250.5489 0003967 297.6444 161.7699  1.86231757 16400
BEIDOU-3 M10 (C24)      
1 43582U 18062B   20360.72780649  .00000019  00000-0  00000-0 0  9993
2 43582  54.4751 250.5529 0006330 355.7445 247.7448  1.86232287 16397
BEIDOU-3 M11 (C25)      
1 43602U 18067A   20360.73222785  .00000023  00000-0  00000-0 0  9999
2 43602  54.5489 249.1213 0007454 356.2399 292.7518  1.86231471 15880
